{
	"ndm": {
		"omm": [
			{
				"header": {
					"CREATION_DATE": "",
					"ORIGINATOR": ""
				},
				"body": {
					"segment": {
						"metadata": {
							"OBJECT_NAME": "STARLINK-30794",
							"OBJECT_ID": "2023-170N",
							"CENTER_NAME": "EARTH",
							"REF_FRAME": "TEME",
							"TIME_SYSTEM": "UTC",
							"MEAN_ELEMENT_THEORY": "SGP4"
						},
						"data": {
							"meanElements": {
								"EPOCH": "2023-11-21T04:00:00.999936",
								"MEAN_MOTION": 15.64117206,
								"ECCENTRICITY": 0.0001749,
								"INCLINATION": 43.0002,
								"RA_OF_ASC_NODE": 84.3086,
								"ARG_OF_PERICENTER": 269.8228,
								"MEAN_ANOMALY": 161.1488
							},
							"tleParameters": {
								"EPHEMERIS_TYPE": 0,
								"CLASSIFICATION_TYPE": "U",
								"NORAD_CAT_ID": 58218,
								"ELEMENT_SET_NO": 999,
								"REV_AT_EPOCH": 393,
								"BSTAR": -0.019026,
								"MEAN_MOTION_DOT": -0.01639881,
								"MEAN_MOTION_DDOT": 0
							}
						}
					}
				}
			},
			{
				"header": {
					"CREATION_DATE": "",
					"ORIGINATOR": ""
				},
				"body": {
					"segment": {
						"metadata": {
							"OBJECT_NAME": "STARLINK-30835",
							"OBJECT_ID": "2023-170P",
							"CENTER_NAME": "EARTH",
							"REF_FRAME": "TEME",
							"TIME_SYSTEM": "UTC",
							"MEAN_ELEMENT_THEORY": "SGP4"
						},
						"data": {
							"meanElements": {
								"EPOCH": "2023-11-21T04:00:00.999936",
								"MEAN_MOTION": 15.64114163,
								"ECCENTRICITY": 0.0001511,
								"INCLINATION": 43.0004,
								"RA_OF_ASC_NODE": 84.3071,
								"ARG_OF_PERICENTER": 269.5027,
								"MEAN_ANOMALY": 162.0803
							},
							"tleParameters": {
								"EPHEMERIS_TYPE": 0,
								"CLASSIFICATION_TYPE": "U",
								"NORAD_CAT_ID": 58219,
								"ELEMENT_SET_NO": 999,
								"REV_AT_EPOCH": 381,
								"BSTAR": -0.019008,
								"MEAN_MOTION_DOT": -0.01638187,
								"MEAN_MOTION_DDOT": 0
							}
						}
					}
				}
			},
			{
				"header": {
					"CREATION_DATE": "",
					"ORIGINATOR": ""
				},
				"body": {
					"segment": {
						"metadata": {
							"OBJECT_NAME": "STARLINK-30792",
							"OBJECT_ID": "2023-170Q",
							"CENTER_NAME": "EARTH",
							"REF_FRAME": "TEME",
							"TIME_SYSTEM": "UTC",
							"MEAN_ELEMENT_THEORY": "SGP4"
						},
						"data": {
							"meanElements": {
								"EPOCH": "2023-11-21T04:00:00.999936",
								"MEAN_MOTION": 15.64113018,
								"ECCENTRICITY": 0.0001631,
								"INCLINATION": 42.9999,
								"RA_OF_ASC_NODE": 84.3053,
								"ARG_OF_PERICENTER": 268.52,
								"MEAN_ANOMALY": 163.6727
							},
							"tleParameters": {
								"EPHEMERIS_TYPE": 0,
								"CLASSIFICATION_TYPE": "U",
								"NORAD_CAT_ID": 58220,
								"ELEMENT_SET_NO": 999,
								"REV_AT_EPOCH": 393,
								"BSTAR": -0.019006,
								"MEAN_MOTION_DOT": -0.01638043,
								"MEAN_MOTION_DDOT": 0
							}
						}
					}
				}
			},
			{
				"header": {
					"CREATION_DATE": "",
					"ORIGINATOR": ""
				},
				"body": {
					"segment": {
						"metadata": {
							"OBJECT_NAME": "STARLINK-30836",
							"OBJECT_ID": "2023-170R",
							"CENTER_NAME": "EARTH",
							"REF_FRAME": "TEME",
							"TIME_SYSTEM": "UTC",
							"MEAN_ELEMENT_THEORY": "SGP4"
						},
						"data": {
							"meanElements": {
								"EPOCH": "2023-11-21T04:00:00.999936",
								"MEAN_MOTION": 15.64109971,
								"ECCENTRICITY": 0.0001469,
								"INCLINATION": 43,
								"RA_OF_ASC_NODE": 84.3037,
								"ARG_OF_PERICENTER": 279.971,
								"MEAN_ANOMALY": 152.8333
							},
							"tleParameters": {
								"EPHEMERIS_TYPE": 0,
								"CLASSIFICATION_TYPE": "U",
								"NORAD_CAT_ID": 58221,
								"ELEMENT_SET_NO": 999,
								"REV_AT_EPOCH": 381,
								"BSTAR": -0.018986,
								"MEAN_MOTION_DOT": -0.01636245,
								"MEAN_MOTION_DDOT": 0
							}
						}
					}
				}
			},
			{
				"header": {
					"CREATION_DATE": "",
					"ORIGINATOR": ""
				},
				"body": {
					"segment": {
						"metadata": {
							"OBJECT_NAME": "STARLINK-30855",
							"OBJECT_ID": "2023-170S",
							"CENTER_NAME": "EARTH",
							"REF_FRAME": "TEME",
							"TIME_SYSTEM": "UTC",
							"MEAN_ELEMENT_THEORY": "SGP4"
						},
						"data": {
							"meanElements": {
								"EPOCH": "2023-11-21T04:00:00.999936",
								"MEAN_MOTION": 15.64109527,
								"ECCENTRICITY": 0.0001464,
								"INCLINATION": 43.0003,
								"RA_OF_ASC_NODE": 84.3022,
								"ARG_OF_PERICENTER": 278.6313,
								"MEAN_ANOMALY": 154.7829
							},
							"tleParameters": {
								"EPHEMERIS_TYPE": 0,
								"CLASSIFICATION_TYPE": "U",
								"NORAD_CAT_ID": 58222,
								"ELEMENT_SET_NO": 999,
								"REV_AT_EPOCH": 381,
								"BSTAR": -0.019005,
								"MEAN_MOTION_DOT": -0.01637661,
								"MEAN_MOTION_DDOT": 0
							}
						}
					}
				}
			},
			{
				"header": {
					"CREATION_DATE": "",
					"ORIGINATOR": ""
				},
				"body": {
					"segment": {
						"metadata": {
							"OBJECT_NAME": "STARLINK-30840",
							"OBJECT_ID": "2023-170T",
							"CENTER_NAME": "EARTH",
							"REF_FRAME": "TEME",
							"TIME_SYSTEM": "UTC",
							"MEAN_ELEMENT_THEORY": "SGP4"
						},
						"data": {
							"meanElements": {
								"EPOCH": "2023-11-21T04:00:00.999936",
								"MEAN_MOTION": 15.64109277,
								"ECCENTRICITY": 0.0001686,
								"INCLINATION": 43.0002,
								"RA_OF_ASC_NODE": 84.3009,
								"ARG_OF_PERICENTER": 266.6742,
								"MEAN_ANOMALY": 167.3487
							},
							"tleParameters": {
								"EPHEMERIS_TYPE": 0,
								"CLASSIFICATION_TYPE": "U",
								"NORAD_CAT_ID": 58223,
								"ELEMENT_SET_NO": 999,
								"REV_AT_EPOCH": 381,
								"BSTAR": -0.019006,
								"MEAN_MOTION_DOT": -0.0163786,
								"MEAN_MOTION_DDOT": 0
							}
						}
					}
				}
			},
			{
				"header": {
					"CREATION_DATE": "",
					"ORIGINATOR": ""
				},
				"body": {
					"segment": {
						"metadata": {
							"OBJECT_NAME": "STARLINK-30875",
							"OBJECT_ID": "2023-170U",
							"CENTER_NAME": "EARTH",
							"REF_FRAME": "TEME",
							"TIME_SYSTEM": "UTC",
							"MEAN_ELEMENT_THEORY": "SGP4"
						},
						"data": {
							"meanElements": {
								"EPOCH": "2023-11-21T04:00:00.999936",
								"MEAN_MOTION": 15.66488069,
								"ECCENTRICITY": 0.0001745,
								"INCLINATION": 43.0002,
								"RA_OF_ASC_NODE": 84.2922,
								"ARG_OF_PERICENTER": 269.5331,
								"MEAN_ANOMALY": 167.8255
							},
							"tleParameters": {
								"EPHEMERIS_TYPE": 0,
								"CLASSIFICATION_TYPE": "U",
								"NORAD_CAT_ID": 58224,
								"ELEMENT_SET_NO": 999,
								"REV_AT_EPOCH": 387,
								"BSTAR": 0.0010436,
								"MEAN_MOTION_DOT": 0.00113051,
								"MEAN_MOTION_DDOT": 0
							}
						}
					}
				}
			},
			{
				"header": {
					"CREATION_DATE": "",
					"ORIGINATOR": ""
				},
				"body": {
					"segment": {
						"metadata": {
							"OBJECT_NAME": "STARLINK-30872",
							"OBJECT_ID": "2023-170V",
							"CENTER_NAME": "EARTH",
							"REF_FRAME": "TEME",
							"TIME_SYSTEM": "UTC",
							"MEAN_ELEMENT_THEORY": "SGP4"
						},
						"data": {
							"meanElements": {
								"EPOCH": "2023-11-21T04:00:00.999936",
								"MEAN_MOTION": 15.64109679,
								"ECCENTRICITY": 0.000171,
								"INCLINATION": 43.0002,
								"RA_OF_ASC_NODE": 84.2977,
								"ARG_OF_PERICENTER": 265.0571,
								"MEAN_ANOMALY": 170.1858
							},
							"tleParameters": {
								"EPHEMERIS_TYPE": 0,
								"CLASSIFICATION_TYPE": "U",
								"NORAD_CAT_ID": 58225,
								"ELEMENT_SET_NO": 999,
								"REV_AT_EPOCH": 274,
								"BSTAR": -0.019095,
								"MEAN_MOTION_DOT": -0.01644667,
								"MEAN_MOTION_DDOT": 0
							}
						}
					}
				}
			}
		]
	}
}